{
  "type": "FeatureCollection",
  "features": [
    {
      "type": "Feature",
      "properties": {
        "norad_id": 41599,
        "name": "CARTOSAT-2C",
        "group": "resource",
        "lat": 66.32749214030464,
        "lon": 33.53870386496032,
        "alt_km": 495.0760597636927,
        "timestamp": "2025-12-19T18:58:41.249589+00:00",
        "meta_object_name": "CARTOSAT-2C",
        "meta_object_id": "2016-040A",
        "meta_epoch": "2025-12-19T07:37:01.505856",
        "meta_mean_motion": 15.19169054,
        "meta_eccentricity": 0.00110701,
        "meta_inclination": 97.4763,
        "meta_ra_of_asc_node": 50.501,
        "meta_arg_of_pericenter": 42.6627,
        "meta_mean_anomaly": 317.5465,
        "meta_ephemeris_type": 0,
        "meta_classification_type": "U",
        "meta_norad_cat_id": 41599,
        "meta_element_set_no": 999,
        "meta_rev_at_epoch": 52640,
        "meta_bstar": 0.00010857929,
        "meta_mean_motion_dot": 2.217e-05,
        "meta_mean_motion_ddot": 0,
        "tle_line1": "1 41599U 16040A   25353.31737854  .00002217  00000+0  10858-3 0  9991",
        "tle_line2": "2 41599  97.4763  50.5010 0011070  42.6627 317.5465 15.19169054526402"
      },
      "geometry": {
        "type": "Point",
        "coordinates": [
          33.53870386496032,
          66.32749214030464
        ]
      }
    },
    {
      "type": "Feature",
      "properties": {
        "norad_id": 41601,
        "name": "SKYSAT-C1",
        "group": "resource",
        "lat": 75.26172285643953,
        "lon": -121.82811148823096,
        "alt_km": 461.01875697337255,
        "timestamp": "2025-12-19T18:58:41.249600+00:00",
        "meta_object_name": "SKYSAT-C1",
        "meta_object_id": "2016-040C",
        "meta_epoch": "2025-12-19T01:17:41.366400",
        "meta_mean_motion": 15.32701107,
        "meta_eccentricity": 0.00016294,
        "meta_inclination": 96.9815,
        "meta_ra_of_asc_node": 29.712,
        "meta_arg_of_pericenter": 353.8506,
        "meta_mean_anomaly": 6.2717,
        "meta_ephemeris_type": 0,
        "meta_classification_type": "U",
        "meta_norad_cat_id": 41601,
        "meta_element_set_no": 999,
        "meta_rev_at_epoch": 53024,
        "meta_bstar": 0.00024980143,
        "meta_mean_motion_dot": 7.817e-05,
        "meta_mean_motion_ddot": 0,
        "tle_line1": "1 41601U 16040C   25353.05395100  .00007817  00000+0  24980-3 0  9992",
        "tle_line2": "2 41601  96.9815  29.7120 0001629 353.8506   6.2717 15.32701107530245"
      },
      "geometry": {
        "type": "Point",
        "coordinates": [
          -121.82811148823096,
          75.26172285643953
        ]
      }
    },
    {
      "type": "Feature",
      "properties": {
        "norad_id": 41603,
        "name": "LAPAN-A3",
        "group": "resource",
        "lat": -39.202472026177986,
        "lon": 165.2202778480554,
        "alt_km": 477.1594192144412,
        "timestamp": "2025-12-19T18:58:41.249610+00:00",
        "meta_object_name": "LAPAN-A3",
        "meta_object_id": "2016-040E",
        "meta_epoch": "2025-12-19T07:02:45.358656",
        "meta_mean_motion": 15.31602395,
        "meta_eccentricity": 0.00090292,
        "meta_inclination": 97.1423,
        "meta_ra_of_asc_node": 350.6115,
        "meta_arg_of_pericenter": 307.3715,
        "meta_mean_anomaly": 52.6704,
        "meta_ephemeris_type": 0,
        "meta_classification_type": "U",
        "meta_norad_cat_id": 41603,
        "meta_element_set_no": 999,
        "meta_rev_at_epoch": 52726,
        "meta_bstar": 0.00010209639,
        "meta_mean_motion_dot": 3.044e-05,
        "meta_mean_motion_ddot": 0,
        "tle_line1": "1 41603U 16040E   25353.29358054  .00003044  00000+0  10210-3 0  9996",
        "tle_line2": "2 41603  97.1423 350.6115 0009029 307.3715  52.6704 15.31602395527260"
      },
      "geometry": {
        "type": "Point",
        "coordinates": [
          165.2202778480554,
          -39.202472026177986
        ]
      }
    },
    {
      "type": "Feature",
      "properties": {
        "norad_id": 41604,
        "name": "BIROS",
        "group": "resource",
        "lat": 68.0991599267922,
        "lon": -136.500956431311,
        "alt_km": 286.8067313518586,
        "timestamp": "2025-12-19T18:58:41.249634+00:00",
        "meta_object_name": "BIROS",
        "meta_object_id": "2016-040F",
        "meta_epoch": "2025-12-19T01:55:23.148192",
        "meta_mean_motion": 15.92127149,
        "meta_eccentricity": 0.00035441,
        "meta_inclination": 97.0685,
        "meta_ra_of_asc_node": 24.7778,
        "meta_arg_of_pericenter": 134.1983,
        "meta_mean_anomaly": 225.9584,
        "meta_ephemeris_type": 0,
        "meta_classification_type": "U",
        "meta_norad_cat_id": 41604,
        "meta_element_set_no": 999,
        "meta_rev_at_epoch": 52973,
        "meta_bstar": 0.00053351864,
        "meta_mean_motion_dot": 0.00176218,
        "meta_mean_motion_ddot": 1.3459503e-05,
        "tle_line1": "1 41604U 16040F   25353.08012903  .00176218  13460-4  53352-3 0  9991",
        "tle_line2": "2 41604  97.0685  24.7778 0003544 134.1983 225.9584 15.92127149529734"
      },
      "geometry": {
        "type": "Point",
        "coordinates": [
          -136.500956431311,
          68.0991599267922
        ]
      }
    },
    {
      "type": "Feature",
      "properties": {
        "norad_id": 41727,
        "name": "GAOFEN-3",
        "group": "resource",
        "lat": -70.57843887766998,
        "lon": 154.48209408250995,
        "alt_km": 759.3374188330599,
        "timestamp": "2025-12-19T18:58:41.249645+00:00",
        "meta_object_name": "GAOFEN-3",
        "meta_object_id": "2016-049A",
        "meta_epoch": "2025-12-19T06:09:21.076416",
        "meta_mean_motion": 14.42215707,
        "meta_eccentricity": 0.00012811,
        "meta_inclination": 98.4033,
        "meta_ra_of_asc_node": 358.7439,
        "meta_arg_of_pericenter": 58.598,
        "meta_mean_anomaly": 301.5335,
        "meta_ephemeris_type": 0,
        "meta_classification_type": "U",
        "meta_norad_cat_id": 41727,
        "meta_element_set_no": 999,
        "meta_rev_at_epoch": 49271,
        "meta_bstar": 7.2660078e-05,
        "meta_mean_motion_dot": 1.96e-06,
        "meta_mean_motion_ddot": 0,
        "tle_line1": "1 41727U 16049A   25353.25649394  .00000196  00000+0  72660-4 0  9991",
        "tle_line2": "2 41727  98.4033 358.7439 0001281  58.5980 301.5335 14.42215707492712"
      },
      "geometry": {
        "type": "Point",
        "coordinates": [
          154.48209408250995,
          -70.57843887766998
        ]
      }
    },
    {
      "type": "Feature",
      "properties": {
        "norad_id": 41771,
        "name": "SKYSAT-C4",
        "group": "resource",
        "lat": -74.50162370776714,
        "lon": 44.67890418335291,
        "alt_km": 447.5616264201017,
        "timestamp": "2025-12-19T18:58:41.249655+00:00",
        "meta_object_name": "SKYSAT-C4",
        "meta_object_id": "2016-058B",
        "meta_epoch": "2025-12-19T00:37:25.370976",
        "meta_mean_motion": 15.42424103,
        "meta_eccentricity": 0.00020919,
        "meta_inclination": 96.9363,
        "meta_ra_of_asc_node": 17.9086,
        "meta_arg_of_pericenter": 130.2828,
        "meta_mean_anomaly": 229.8603,
        "meta_ephemeris_type": 0,
        "meta_classification_type": "U",
        "meta_norad_cat_id": 41771,
        "meta_element_set_no": 999,
        "meta_rev_at_epoch": 51764,
        "meta_bstar": 0.00028649124,
        "meta_mean_motion_dot": 0.00012311,
        "meta_mean_motion_ddot": 0,
        "tle_line1": "1 41771U 16058B   25353.02598809  .00012311  00000+0  28649-3 0  9998",
        "tle_line2": "2 41771  96.9363  17.9086 0002091 130.2828 229.8603 15.42424103517644"
      },
      "geometry": {
        "type": "Point",
        "coordinates": [
          44.67890418335291,
          -74.50162370776714
        ]
      }
    },
    {
      "type": "Feature",
      "properties": {
        "norad_id": 41772,
        "name": "SKYSAT-C5",
        "group": "resource",
        "lat": -10.205274767669328,
        "lon": 38.529724627691145,
        "alt_km": 468.229575663584,
        "timestamp": "2025-12-19T18:58:41.249669+00:00",
        "meta_object_name": "SKYSAT-C5",
        "meta_object_id": "2016-058C",
        "meta_epoch": "2025-12-19T01:48:05.857920",
        "meta_mean_motion": 15.33986373,
        "meta_eccentricity": 0.00037591,
        "meta_inclination": 97.0752,
        "meta_ra_of_asc_node": 36.5627,
        "meta_arg_of_pericenter": 262.6771,
        "meta_mean_anomaly": 97.4045,
        "meta_ephemeris_type": 0,
        "meta_classification_type": "U",
        "meta_norad_cat_id": 41772,
        "meta_element_set_no": 999,
        "meta_rev_at_epoch": 51613,
        "meta_bstar": 0.00024219722,
        "meta_mean_motion_dot": 7.891e-05,
        "meta_mean_motion_ddot": 0,
        "tle_line1": "1 41772U 16058C   25353.07506780  .00007891  00000+0  24220-3 0  9999",
        "tle_line2": "2 41772  97.0752  36.5627 0003759 262.6771  97.4045 15.33986373516130"
      },
      "geometry": {
        "type": "Point",
        "coordinates": [
          38.529724627691145,
          -10.205274767669328
        ]
      }
    }
  ]
}